[{"OBJECT_NAME":"STARLINK-31697","OBJECT_ID":"2024-076V","EPOCH":"2026-03-09T05:25:45.128064","MEAN_MOTION":15.28599043,"ECCENTRICITY":0.00013526,"INCLINATION":43.0011,"RA_OF_ASC_NODE":11.4517,"ARG_OF_PERICENTER":268.5323,"MEAN_ANOMALY":91.5374,"EPHEMERIS_TYPE":0,"CLASSIFICATION_TYPE":"U","NORAD_CAT_ID":59583,"ELEMENT_SET_NO":999,"REV_AT_EPOCH":10634,"BSTAR":3.3673464e-5,"MEAN_MOTION_DOT":6.91e-6,"MEAN_MOTION_DDOT":0},{"OBJECT_NAME":"TRANSPORTER-1 OBJECT AA","OBJECT_ID":"2021-006AA","EPOCH":"2026-03-09T22:58:14.761920","MEAN_MOTION":15.29982294,"ECCENTRICITY":0.00086604,"INCLINATION":97.2381,"RA_OF_ASC_NODE":112.457,"ARG_OF_PERICENTER":185.709,"MEAN_ANOMALY":174.4054,"EPHEMERIS_TYPE":0,"CLASSIFICATION_TYPE":"U","NORAD_CAT_ID":47437,"ELEMENT_SET_NO":999,"REV_AT_EPOCH":28414,"BSTAR":0.0002197941,"MEAN_MOTION_DOT":6.312e-5,"MEAN_MOTION_DDOT":0}]
